ONEWEB-0707             
1 61612U 24188U   25109.96921853 -.00000467  00000+0 -13754-2 0  9999
2 61612  87.8785 120.6207 0001731 113.6360 246.4949 13.10372775 27891
ONEWEB-0708             
1 61613U 24188V   25109.45296128 -.00000565  00000+0 -16536-2 0  9994
2 61613  87.8848 120.6995 0002192 113.4286 246.7072 13.10374916 27803
